[{"COMMENT":"GENERATED VIA SPACETRACK.ORG API","ORIGINATOR":"18 SPCS","NORAD_CAT_ID":"45120","OBJECT_NAME":"VPM","OBJECT_TYPE":"PAYLOAD","CLASSIFICATION_TYPE":"U","INTLDES":"19071K","EPOCH":"2020-05-02 13:45:16","EPOCH_MICROSECONDS":"6752","MEAN_MOTION":"15.337687","ECCENTRICITY":"0.001156","INCLINATION":"51.642","RA_OF_ASC_NODE":"224.8617","ARG_OF_PERICENTER":"246.35","MEAN_ANOMALY":"113.6269","EPHEMERIS_TYPE":"0","ELEMENT_SET_NO":"999","REV_AT_EPOCH":"1397","BSTAR":"0.0001132","MEAN_MOTION_DOT":"0.00003381","MEAN_MOTION_DDOT":"0","FILE":"2742959","TLE_LINE0":"0 VPM","TLE_LINE1":"1 45120U 19071K   20123.57310193 +.00003381 +00000-0 +11320-3 0  9992","TLE_LINE2":"2 45120 051.6420 224.8617 0011560 246.3500 113.6269 15.33768700013973","OBJECT_ID":"2019-071K","OBJECT_NUMBER":"45120","SEMIMAJOR_AXIS":"6842.717","PERIOD":"93.886","APOGEE":"472.492","PERIGEE":"456.672","DECAYED":"0"},{"COMMENT":"GENERATED VIA SPACETRACK.ORG API","ORIGINATOR":"18 SPCS","NORAD_CAT_ID":"45120","OBJECT_NAME":"VPM","OBJECT_TYPE":"PAYLOAD","CLASSIFICATION_TYPE":"U","INTLDES":"19071K","EPOCH":"2020-05-02 18:26:44","EPOCH_MICROSECONDS":"555136","MEAN_MOTION":"15.33770066","ECCENTRICITY":"0.0011556","INCLINATION":"51.642","RA_OF_ASC_NODE":"223.9169","ARG_OF_PERICENTER":"247.1384","MEAN_ANOMALY":"112.8378","EPHEMERIS_TYPE":"0","ELEMENT_SET_NO":"999","REV_AT_EPOCH":"1400","BSTAR":"0.00011529","MEAN_MOTION_DOT":"0.0000345","MEAN_MOTION_DDOT":"0","FILE":"2743112","TLE_LINE0":"0 VPM","TLE_LINE1":"1 45120U 19071K   20123.76857124 +.00003450 +00000-0 +11529-3 0  9991","TLE_LINE2":"2 45120 051.6420 223.9169 0011556 247.1384 112.8378 15.33770066014004","OBJECT_ID":"2019-071K","OBJECT_NUMBER":"45120","SEMIMAJOR_AXIS":"6842.713","PERIOD":"93.886","APOGEE":"472.485","PERIGEE":"456.670","DECAYED":"0"},{"COMMENT":"GENERATED VIA SPACETRACK.ORG API","ORIGINATOR":"18 SPCS","NORAD_CAT_ID":"45120","OBJECT_NAME":"VPM","OBJECT_TYPE":"PAYLOAD","CLASSIFICATION_TYPE":"U","INTLDES":"19071K","EPOCH":"2020-05-03 11:38:49","EPOCH_MICROSECONDS":"79328","MEAN_MOTION":"15.33775394","ECCENTRICITY":"0.0011581","INCLINATION":"51.6421","RA_OF_ASC_NODE":"220.4523","ARG_OF_PERICENTER":"249.8123","MEAN_ANOMALY":"110.1614","EPHEMERIS_TYPE":"0","ELEMENT_SET_NO":"999","REV_AT_EPOCH":"1411","BSTAR":"0.00012535","MEAN_MOTION_DOT":"0.00003786","MEAN_MOTION_DDOT":"0","FILE":"2743398","TLE_LINE0":"0 VPM","TLE_LINE1":"1 45120U 19071K   20124.48529027  .00003786  00000-0  12535-3 0  9999","TLE_LINE2":"2 45120  51.6421 220.4523 0011581 249.8123 110.1614 15.33775394 14114","OBJECT_ID":"2019-071K","OBJECT_NUMBER":"45120","SEMIMAJOR_AXIS":"6842.697","PERIOD":"93.885","APOGEE":"472.486","PERIGEE":"456.637","DECAYED":"0"},{"COMMENT":"GENERATED VIA SPACETRACK.ORG API","ORIGINATOR":"18 SPCS","NORAD_CAT_ID":"45120","OBJECT_NAME":"VPM","OBJECT_TYPE":"PAYLOAD","CLASSIFICATION_TYPE":"U","INTLDES":"19071K","EPOCH":"2020-05-03 17:54:07","EPOCH_MICROSECONDS":"43904","MEAN_MOTION":"15.33777185","ECCENTRICITY":"0.0011578","INCLINATION":"51.6422","RA_OF_ASC_NODE":"219.1926","ARG_OF_PERICENTER":"250.8349","MEAN_ANOMALY":"109.138","EPHEMERIS_TYPE":"0","ELEMENT_SET_NO":"999","REV_AT_EPOCH":"1415","BSTAR":"0.00012511","MEAN_MOTION_DOT":"0.00003778","MEAN_MOTION_DDOT":"0","FILE":"2743596","TLE_LINE0":"0 VPM","TLE_LINE1":"1 45120U 19071K   20124.74591486 +.00003778 +00000-0 +12511-3 0  9991","TLE_LINE2":"2 45120 051.6422 219.1926 0011578 250.8349 109.1380 15.33777185014157","OBJECT_ID":"2019-071K","OBJECT_NUMBER":"45120","SEMIMAJOR_AXIS":"6842.692","PERIOD":"93.885","APOGEE":"472.479","PERIGEE":"456.634","DECAYED":"0"},{"COMMENT":"GENERATED VIA SPACETRACK.ORG API","ORIGINATOR":"18 SPCS","NORAD_CAT_ID":"45120","OBJECT_NAME":"VPM","OBJECT_TYPE":"PAYLOAD","CLASSIFICATION_TYPE":"U","INTLDES":"19071K","EPOCH":"2020-05-04 12:40:00","EPOCH_MICROSECONDS":"744096","MEAN_MOTION":"15.33782613","ECCENTRICITY":"0.0011599","INCLINATION":"51.6424","RA_OF_ASC_NODE":"215.4131","ARG_OF_PERICENTER":"253.8128","MEAN_ANOMALY":"106.1578","EPHEMERIS_TYPE":"0","ELEMENT_SET_NO":"999","REV_AT_EPOCH":"1427","BSTAR":"0.00012338","MEAN_MOTION_DOT":"0.00003721","MEAN_MOTION_DDOT":"0","FILE":"2743994","TLE_LINE0":"0 VPM","TLE_LINE1":"1 45120U 19071K   20125.52778639 +.00003721 +00000-0 +12338-3 0  9990","TLE_LINE2":"2 45120 051.6424 215.4131 0011599 253.8128 106.1578 15.33782613014278","OBJECT_ID":"2019-071K","OBJECT_NUMBER":"45120","SEMIMAJOR_AXIS":"6842.675","PERIOD":"93.885","APOGEE":"472.477","PERIGEE":"456.604","DECAYED":"0"},{"COMMENT":"GENERATED VIA SPACETRACK.ORG API","ORIGINATOR":"18 SPCS","NORAD_CAT_ID":"45120","OBJECT_NAME":"VPM","OBJECT_TYPE":"PAYLOAD","CLASSIFICATION_TYPE":"U","INTLDES":"19071K","EPOCH":"2020-05-04 17:21:29","EPOCH_MICROSECONDS":"133504","MEAN_MOTION":"15.33784207","ECCENTRICITY":"0.0011594","INCLINATION":"51.6424","RA_OF_ASC_NODE":"214.4682","ARG_OF_PERICENTER":"254.5986","MEAN_ANOMALY":"105.3716","EPHEMERIS_TYPE":"0","ELEMENT_SET_NO":"999","REV_AT_EPOCH":"1430","BSTAR":"0.00012518","MEAN_MOTION_DOT":"0.00003781","MEAN_MOTION_DDOT":"0","FILE":"2744117","TLE_LINE0":"0 VPM","TLE_LINE1":"1 45120U 19071K   20125.72325386  .00003781  00000-0  12518-3 0  9995","TLE_LINE2":"2 45120  51.6424 214.4682 0011594 254.5986 105.3716 15.33784207 14303","OBJECT_ID":"2019-071K","OBJECT_NUMBER":"45120","SEMIMAJOR_AXIS":"6842.671","PERIOD":"93.885","APOGEE":"472.469","PERIGEE":"456.602","DECAYED":"0"},{"COMMENT":"GENERATED VIA SPACETRACK.ORG API","ORIGINATOR":"18 SPCS","NORAD_CAT_ID":"45120","OBJECT_NAME":"VPM","OBJECT_TYPE":"PAYLOAD","CLASSIFICATION_TYPE":"U","INTLDES":"19071K","EPOCH":"2020-05-05 16:48:50","EPOCH_MICROSECONDS":"766048","MEAN_MOTION":"15.33791331","ECCENTRICITY":"0.0011587","INCLINATION":"51.6427","RA_OF_ASC_NODE":"209.744","ARG_OF_PERICENTER":"258.3761","MEAN_ANOMALY":"101.592","EPHEMERIS_TYPE":"0","ELEMENT_SET_NO":"999","REV_AT_EPOCH":"1445","BSTAR":"0.0001148","MEAN_MOTION_DOT":"0.00003437","MEAN_MOTION_DDOT":"0","FILE":"2744703","TLE_LINE0":"0 VPM","TLE_LINE1":"1 45120U 19071K   20126.70058757 +.00003437 +00000-0 +11480-3 0  9994","TLE_LINE2":"2 45120 051.6427 209.7440 0011587 258.3761 101.5920 15.33791331014457","OBJECT_ID":"2019-071K","OBJECT_NUMBER":"45120","SEMIMAJOR_AXIS":"6842.649","PERIOD":"93.885","APOGEE":"472.443","PERIGEE":"456.586","DECAYED":"0"},{"COMMENT":"GENERATED VIA SPACETRACK.ORG API","ORIGINATOR":"18 SPCS","NORAD_CAT_ID":"45120","OBJECT_NAME":"VPM","OBJECT_TYPE":"PAYLOAD","CLASSIFICATION_TYPE":"U","INTLDES":"19071K","EPOCH":"2020-05-06 05:19:26","EPOCH_MICROSECONDS":"112864","MEAN_MOTION":"15.33796099","ECCENTRICITY":"0.0011588","INCLINATION":"51.6427","RA_OF_ASC_NODE":"207.2243","ARG_OF_PERICENTER":"260.3887","MEAN_ANOMALY":"99.5786","EPHEMERIS_TYPE":"0","ELEMENT_SET_NO":"999","REV_AT_EPOCH":"1453","BSTAR":"0.000119","MEAN_MOTION_DOT":"0.00003577","MEAN_MOTION_DDOT":"0","FILE":"2745048","TLE_LINE0":"0 VPM","TLE_LINE1":"1 45120U 19071K   20127.22183001 +.00003577 +00000-0 +11900-3 0  9995","TLE_LINE2":"2 45120 051.6427 207.2243 0011588 260.3887 099.5786 15.33796099014535","OBJECT_ID":"2019-071K","OBJECT_NUMBER":"45120","SEMIMAJOR_AXIS":"6842.635","PERIOD":"93.884","APOGEE":"472.429","PERIGEE":"456.571","DECAYED":"0"},{"COMMENT":"GENERATED VIA SPACETRACK.ORG API","ORIGINATOR":"18 SPCS","NORAD_CAT_ID":"45120","OBJECT_NAME":"VPM","OBJECT_TYPE":"PAYLOAD","CLASSIFICATION_TYPE":"U","INTLDES":"19071K","EPOCH":"2020-05-06 11:34:43","EPOCH_MICROSECONDS":"742208","MEAN_MOTION":"15.33798241","ECCENTRICITY":"0.0011586","INCLINATION":"51.6427","RA_OF_ASC_NODE":"205.9645","ARG_OF_PERICENTER":"261.4049","MEAN_ANOMALY":"98.562","EPHEMERIS_TYPE":"0","ELEMENT_SET_NO":"999","REV_AT_EPOCH":"1457","BSTAR":"0.00011963","MEAN_MOTION_DOT":"0.00003598","MEAN_MOTION_DDOT":"0","FILE":"2745083","TLE_LINE0":"0 VPM","TLE_LINE1":"1 45120U 19071K   20127.48245072  .00003598  00000-0  11963-3 0  9992","TLE_LINE2":"2 45120  51.6427 205.9645 0011586 261.4049  98.5620 15.33798241 14577","OBJECT_ID":"2019-071K","OBJECT_NUMBER":"45120","SEMIMAJOR_AXIS":"6842.629","PERIOD":"93.884","APOGEE":"472.422","PERIGEE":"456.566","DECAYED":"0"},{"COMMENT":"GENERATED VIA SPACETRACK.ORG API","ORIGINATOR":"18 SPCS","NORAD_CAT_ID":"45120","OBJECT_NAME":"VPM","OBJECT_TYPE":"PAYLOAD","CLASSIFICATION_TYPE":"U","INTLDES":"19071K","EPOCH":"2020-05-06 16:16:11","EPOCH_MICROSECONDS":"966592","MEAN_MOTION":"15.33799134","ECCENTRICITY":"0.0011581","INCLINATION":"51.6427","RA_OF_ASC_NODE":"205.0197","ARG_OF_PERICENTER":"262.2539","MEAN_ANOMALY":"97.7128","EPHEMERIS_TYPE":"0","ELEMENT_SET_NO":"999","REV_AT_EPOCH":"1460","BSTAR":"0.0001135","MEAN_MOTION_DOT":"0.00003394","MEAN_MOTION_DDOT":"0","FILE":"2745210","TLE_LINE0":"0 VPM","TLE_LINE1":"1 45120U 19071K   20127.67791628 +.00003394 +00000-0 +11350-3 0  9990","TLE_LINE2":"2 45120 051.6427 205.0197 0011581 262.2539 097.7128 15.33799134014608","OBJECT_ID":"2019-071K","OBJECT_NUMBER":"45120","SEMIMAJOR_AXIS":"6842.626","PERIOD":"93.884","APOGEE":"472.416","PERIGEE":"456.567","DECAYED":"0"},{"COMMENT":"GENERATED VIA SPACETRACK.ORG API","ORIGINATOR":"18 SPCS","NORAD_CAT_ID":"45120","OBJECT_NAME":"VPM","OBJECT_TYPE":"PAYLOAD","CLASSIFICATION_TYPE":"U","INTLDES":"19071K","EPOCH":"2020-05-07 12:35:54","EPOCH_MICROSECONDS":"9024","MEAN_MOTION":"15.33805692","ECCENTRICITY":"0.0011574","INCLINATION":"51.6426","RA_OF_ASC_NODE":"200.9253","ARG_OF_PERICENTER":"265.6101","MEAN_ANOMALY":"94.3558","EPHEMERIS_TYPE":"0","ELEMENT_SET_NO":"999","REV_AT_EPOCH":"1473","BSTAR":"0.00010396","MEAN_MOTION_DOT":"0.00003077","MEAN_MOTION_DDOT":"0","FILE":"2745493","TLE_LINE0":"0 VPM","TLE_LINE1":"1 45120U 19071K   20128.52493066 +.00003077 +00000-0 +10396-3 0  9997","TLE_LINE2":"2 45120 051.6426 200.9253 0011574 265.6101 094.3558 15.33805692014739","OBJECT_ID":"2019-071K","OBJECT_NUMBER":"45120","SEMIMAJOR_AXIS":"6842.607","PERIOD":"93.884","APOGEE":"472.391","PERIGEE":"456.552","DECAYED":"0"}]